[{"OBJECT_NAME":"STARLINK-31619","OBJECT_ID":"2024-073W","EPOCH":"2026-03-09T01:51:45.203328","MEAN_MOTION":15.27599815,"ECCENTRICITY":0.00011522,"INCLINATION":43.0017,"RA_OF_ASC_NODE":321.3356,"ARG_OF_PERICENTER":255.7936,"MEAN_ANOMALY":104.2787,"EPHEMERIS_TYPE":0,"CLASSIFICATION_TYPE":"U","NORAD_CAT_ID":59531,"ELEMENT_SET_NO":999,"REV_AT_EPOCH":10720,"BSTAR":-0.00022868289,"MEAN_MOTION_DOT":-6.553e-5,"MEAN_MOTION_DDOT":0},{"OBJECT_NAME":"CZ-2D R\/B","OBJECT_ID":"2025-227B","EPOCH":"2026-03-09T22:11:26.043072","MEAN_MOTION":15.30393637,"ECCENTRICITY":0.00198129,"INCLINATION":80.1514,"RA_OF_ASC_NODE":267.3771,"ARG_OF_PERICENTER":270.3655,"MEAN_ANOMALY":89.5307,"EPHEMERIS_TYPE":0,"CLASSIFICATION_TYPE":"U","NORAD_CAT_ID":65946,"ELEMENT_SET_NO":999,"REV_AT_EPOCH":2254,"BSTAR":0.00032251975,"MEAN_MOTION_DOT":9.557e-5,"MEAN_MOTION_DDOT":0}]
